0 THOR ABLESTAR DEB
1 00148U 61015AJ  13282.13434001  .00000433  00000-0  30107-3 0  1994
2 00148 065.7785 329.7295 0148460 155.4711 299.7788 14.03392643107910
0 THOR ABLESTAR DEB
1 00148U 61015AJ  13283.27994745  .00000478  00000-0  32770-3 0  2006
2 00148 065.7783 326.7534 0148364 154.8714 327.6557 14.03393093108073
0 THOR ABLESTAR DEB
1 00148U 61015AJ  13284.55379751  .00000445  00000-0  30851-3 0  2015
2 00148 065.7781 323.4442 0148246 154.2018 283.4451 14.03394264108256
0 THOR ABLESTAR DEB
1 00148U 61015AJ  13286.12638469  .00000255  00000-0  19844-3 0  2023
2 00148 065.7778 319.3588 0148104 153.3825 308.5189 14.03396813108479
0 THOR ABLESTAR DEB
1 00148U 61015AJ  13287.18732715  .00000182  00000-0  15612-3 0  2038
2 00148 065.7777 316.6024 0148001 152.8294 268.6529 14.03398218108625
0 THOR ABLESTAR DEB
1 00148U 61015AJ  13288.48016257  .00000217  00000-0  17652-3 0  2044
2 00148 065.7777 313.2437 0147845 152.1515 320.3792 14.03399781108804
0 THOR ABLESTAR DEB
1 00148U 61015AJ  13289.48537376  .00000158  00000-0  14201-3 0  2057
2 00148 065.7776 310.6322 0147739 151.6222 358.9671 14.03400218108944
0 THOR ABLESTAR DEB
1 00148U 61015AJ  13290.68738608  .00000275  00000-0  20974-3 0  2067
2 00148 065.7777 307.5092 0147648 150.9902 311.8496 14.03399720109118
0 THOR ABLESTAR DEB
1 00148U 61015AJ  13292.17700235  .00000397  00000-0  28096-3 0  2077
2 00148 065.7777 303.6390 0147540 150.2085 277.7831 14.03399433109329
0 THOR ABLESTAR DEB
1 00148U 61015AJ  13293.46144855  .00000426  00000-0  29785-3 0  2080
2 00148 065.7778 300.3021 0147396 149.5210 287.1528 14.03400304109503
0 THOR ABLESTAR DEB
1 00148U 61015AJ  13294.73935297  .00000383  00000-0  27287-3 0  2097
2 00148 065.7777 296.9822 0147264 148.8408 263.4669 14.03402191109684
0 THOR ABLESTAR DEB
1 00148U 61015AJ  13295.81015115  .00000288  00000-0  21752-3 0  2102
2 00148 065.7777 294.2003 0147179 148.2763 273.4235 14.03403821109837
